NORAD_CAT_ID,OBJECT_NAME,OBJECT_TYPE,EPOCH,MEAN_MOTION,ECCENTRICITY,INCLINATION,RA_OF_ASC_NODE,ARG_OF_PERICENTER,MEAN_ANOMALY,BSTAR,MEAN_MOTION_DOT,MEAN_MOTION_DDOT,TLE_LINE0,TLE_LINE1,TLE_LINE2,SEMIMAJOR_AXIS,PERIOD,APOGEE,PERIGEE,DECAYED
52307.0,STARLINK-3755,PAYLOAD,2024-06-03 14:26:30,15.08849516,0.0001597,53.2184,110.5445,87.649,272.4685,2.1063e-06,-2.55e-06,0.0,0 STARLINK-3755,1 52307U 22041AY  24155.60174689 -.00000255  00000-0  21063-5 0  9994,2 52307  53.2184 110.5445 0001597  87.6490 272.4685 15.08849516117277,6917.851,95.437,540.821,538.612,0.0
52307.0,STARLINK-3755,PAYLOAD,2024-06-03 20:48:03,15.08842572,0.0001499,53.2173,109.3558,86.1063,274.01,0.00011807,1.592e-05,0.0,0 STARLINK-3755,1 52307U 22041AY  24155.86670775  .00001592  00000-0  11807-3 0  9996,2 52307  53.2173 109.3558 0001499  86.1063 274.0100 15.08842572117317,6917.873,95.437,540.775,538.701,0.0
52307.0,STARLINK-3755,PAYLOAD,2024-06-04 03:09:36,15.08832153,0.0001331,53.2161,108.1657,91.7967,268.3177,0.00032309,4.857e-05,0.0,0 STARLINK-3755,1 52307U 22041AY  24156.13166936  .00004857  00000-0  32309-3 0  9993,2 52307  53.2161 108.1657 0001331  91.7967 268.3177 15.08832153118563,6917.904,95.438,540.69,538.849,0.0
52307.0,STARLINK-3755,PAYLOAD,2024-06-04 20:38:50,15.08841122,0.0001463,53.2173,104.894,92.4781,267.6379,3.1477e-05,2.13e-06,0.0,0 STARLINK-3755,1 52307U 22041AY  24156.86031049  .00000213  00000-0  31477-4 0  9997,2 52307  53.2173 104.8940 0001463  92.4781 267.6379 15.08841122117462,6917.877,95.437,540.754,538.73,0.0
52307.0,STARLINK-3755,PAYLOAD,2024-06-05 03:00:23,15.08843724,0.0001441,53.2176,103.7042,95.4083,264.7074,1.3785e-05,-6.9e-07,0.0,0 STARLINK-3755,1 52307U 22041AY  24157.12526904 -.00000069  00000-0  13785-4 0  9998,2 52307  53.2176 103.7042 0001441  95.4083 264.7074 15.08843724117505,6917.869,95.437,540.731,538.737,0.0
52307.0,STARLINK-3755,PAYLOAD,2024-06-06 02:51:10,15.08836861,0.0001227,53.2192,99.2431,97.3485,262.7647,4.5048e-05,4.29e-06,0.0,0 STARLINK-3755,1 52307U 22041AY  24158.11887158  .00000429  00000-0  45048-4 0  9995,2 52307  53.2192  99.2431 0001227  97.3485 262.7647 15.08836861118861,6917.89,95.438,540.604,538.906,0.0
52307.0,STARLINK-3755,PAYLOAD,2024-06-06 20:20:25,15.08826246,0.0001328,53.2188,95.9716,95.3313,264.783,0.00016533,2.343e-05,0.0,0 STARLINK-3755,1 52307U 22041AY  24158.84751586  .00002343  00000-0  16533-3 0  9993,2 52307  53.2188  95.9716 0001328  95.3313 264.7830 15.08826246118979,6917.922,95.438,540.706,538.869,0.0
52307.0,STARLINK-3755,PAYLOAD,2024-06-08 04:08:07,15.08846054,0.0001262,53.2177,90.0244,75.6258,284.4874,0.0001408,1.954e-05,0.0,0 STARLINK-3755,1 52307U 22041AY  24160.17230833  .00001954  00000-0  14080-3 0  9991,2 52307  53.2177  90.0244 0001262  75.6258 284.4874 15.08846054119174,6917.862,95.437,540.6,538.854,0.0
52307.0,STARLINK-3755,PAYLOAD,2024-06-08 12:05:04,15.08833254,0.0001598,53.2183,88.5378,86.6663,273.4512,2.1198e-05,4.9e-07,0.0,0 STARLINK-3755,1 52307U 22041AY  24160.50352077  .00000049  00000-0  21198-4 0  9996,2 52307  53.2183  88.5378 0001598  86.6663 273.4512 15.08833254118012,6917.901,95.438,540.871,538.661,0.0
52307.0,STARLINK-3755,PAYLOAD,2024-06-09 02:23:32,15.08841567,0.0001498,53.2194,85.8626,90.0272,270.0892,2.629e-05,1.3e-06,0.0,0 STARLINK-3755,1 52307U 22041AY  24161.09967759  .00000130  00000-0  26290-4 0  9999,2 52307  53.2194  85.8626 0001498  90.0272 270.0892 15.08841567119318,6917.876,95.437,540.777,538.704,0.0
52307.0,STARLINK-3755,PAYLOAD,2024-06-09 18:17:23,15.08835455,0.0001672,53.2185,82.8923,66.6341,293.4827,9.9077e-05,1.289e-05,0.0,0 STARLINK-3755,1 52307U 22041AY  24161.76208307  .00001289  00000-0  99077-4 0  9999,2 52307  53.2185  82.8923 0001672  66.6341 293.4827 15.08835455119412,6917.894,95.438,540.916,538.603,0.0
52307.0,STARLINK-3755,PAYLOAD,2024-06-09 23:03:33,15.08835024,0.0001506,53.2184,81.996,84.8467,275.2697,8.9492e-05,1.136e-05,0.0,0 STARLINK-3755,1 52307U 22041AY  24161.96080210  .00001136  00000-0  89492-4 0  9993,2 52307  53.2184  81.9960 0001506  84.8467 275.2697 15.08835024118233,6917.896,95.438,540.802,538.719,0.0
52307.0,STARLINK-3755,PAYLOAD,2024-06-10 03:49:42,15.08846778,0.000161,53.2189,81.1051,70.6324,289.4842,2.7421e-05,1.48e-06,0.0,0 STARLINK-3755,1 52307U 22041AY  24162.15951828  .00000148  00000-0  27421-4 0  9993,2 52307  53.2189  81.1051 0001610  70.6324 289.4842 15.08846778119476,6917.86,95.437,540.838,538.611,0.0
52307.0,STARLINK-3755,PAYLOAD,2024-06-10 11:46:38,15.08841263,0.0001486,53.2183,79.6183,76.3488,283.7669,-4.2507e-05,-9.64e-06,0.0,0 STARLINK-3755,1 52307U 22041AY  24162.49072310 -.00000964  00000-0 -42507-4 0  9990,2 52307  53.2183  79.6183 0001486  76.3488 283.7669 15.08841263119527,6917.877,95.437,540.77,538.714,0.0
52307.0,STARLINK-3755,PAYLOAD,2024-06-10 22:54:20,15.08836502,0.0001641,53.219,77.534,85.3137,274.8042,7.1122e-05,8.44e-06,0.0,0 STARLINK-3755,1 52307U 22041AY  24162.95440521  .00000844  00000-0  71122-4 0  9994,2 52307  53.2190  77.5340 0001641  85.3137 274.8042 15.08836502118380,6917.891,95.438,540.891,538.621,0.0
52307.0,STARLINK-3755,PAYLOAD,2024-06-11 11:37:24,15.08847459,0.0001434,53.2179,75.1596,72.4825,287.6324,0.00012907,1.767e-05,0.0,0 STARLINK-3755,1 52307U 22041AY  24163.48431639  .00001767  00000-0  12907-3 0  9993,2 52307  53.2179  75.1596 0001434  72.4825 287.6324 15.08847459118462,6917.858,95.437,540.715,538.731,0.0
52307.0,STARLINK-3755,PAYLOAD,2024-06-12 00:20:29,15.0884567,0.0001734,53.2169,72.7821,63.2039,296.913,0.00016646,2.363e-05,0.0,0 STARLINK-3755,1 52307U 22041AY  24164.01423572  .00002363  00000-0  16646-3 0  9997,2 52307  53.2169  72.7821 0001734  63.2039 296.9130 15.08845670119757,6917.863,95.437,540.928,538.529,0.0
52307.0,STARLINK-3755,PAYLOAD,2024-06-12 21:00:31,15.08836587,0.000174,53.2185,68.9107,98.9358,261.1832,2.5052e-05,1.11e-06,0.0,0 STARLINK-3755,1 52307U 22041AY  24164.87536307  .00000111  00000-0  25052-4 0  9993,2 52307  53.2185  68.9107 0001740  98.9358 261.1832 15.08836587119889,6917.891,95.438,540.96,538.552,0.0
52307.0,STARLINK-3755,PAYLOAD,2024-06-12 22:35:54,15.08835686,0.0001657,53.2186,68.6131,102.3296,257.7882,1.5249e-05,-4.5e-07,0.0,0 STARLINK-3755,1 52307U 22041AY  24164.94160364 -.00000045  00000-0  15249-4 0  9991,2 52307  53.2186  68.6131 0001657 102.3296 257.7882 15.08835686118684,6917.894,95.438,540.905,538.612,0.0
52307.0,STARLINK-3755,PAYLOAD,2024-06-13 03:22:03,15.08838668,0.000157,53.219,67.7219,101.2802,258.8367,-4.8418e-05,-1.058e-05,0.0,0 STARLINK-3755,1 52307U 22041AY  24165.14032367 -.00001058  00000-0 -48418-4 0  9995,2 52307  53.2190  67.7219 0001570 101.2802 258.8367 15.08838668118718,6917.884,95.438,540.836,538.663,0.0
52307.0,STARLINK-3755,PAYLOAD,2024-06-13 22:26:41,15.08839775,0.0001634,53.2194,64.1526,110.8047,249.3121,-4.9739e-05,-1.08e-05,0.0,0 STARLINK-3755,1 52307U 22041AY  24165.93520328 -.00001080  00000-0 -49739-4 0  9993,2 52307  53.2194  64.1526 0001634 110.8047 249.3121 15.08839775118838,6917.881,95.438,540.876,538.616,0.0
52307.0,STARLINK-3755,PAYLOAD,2024-06-14 00:02:04,15.08842678,0.0001618,53.2191,63.8558,105.058,255.0591,-6.134e-05,-1.264e-05,0.0,0 STARLINK-3755,1 52307U 22041AY  24166.00144227 -.00001264  00000-0 -61340-4 0  9998,2 52307  53.2191  63.8558 0001618 105.0580 255.0591 15.08842678118848,6917.872,95.437,540.857,538.618,0.0
52307.0,STARLINK-3755,PAYLOAD,2024-06-14 22:17:28,15.08831824,0.0001485,53.2183,59.697,85.0377,275.0785,0.00010381,1.364e-05,0.0,0 STARLINK-3755,1 52307U 22041AY  24166.92880746  .00001364  00000-0  10381-3 0  9999,2 52307  53.2183  59.6970 0001485  85.0377 275.0785 15.08831824118986,6917.905,95.438,540.798,538.743,0.0
52307.0,STARLINK-3755,PAYLOAD,2024-06-15 09:25:10,15.08839409,0.0001439,53.2182,57.6148,79.9423,280.1731,5.5608e-05,5.97e-06,0.0,0 STARLINK-3755,1 52307U 22041AY  24167.39248486  .00000597  00000-0  55608-4 0  9999,2 52307  53.2182  57.6148 0001439  79.9423 280.1731 15.08839409119057,6917.882,95.438,540.743,538.752,0.0
52307.0,STARLINK-3755,PAYLOAD,2024-06-15 22:08:15,15.08840305,0.0001347,53.2185,55.2368,94.7544,265.3602,2.3977e-05,9.4e-07,0.0,0 STARLINK-3755,1 52307U 22041AY  24167.92240694  .00000094  00000-0  23977-4 0  9997,2 52307  53.2185  55.2368 0001347  94.7544 265.3602 15.08840305119133,6917.879,95.438,540.676,538.813,0.0
52307.0,STARLINK-3755,PAYLOAD,2024-06-16 09:15:57,15.08842808,0.0001213,53.2185,53.1564,96.1479,263.9652,7.9403e-05,9.76e-06,0.0,0 STARLINK-3755,1 52307U 22041AY  24168.38608261  .00000976  00000-0  79403-4 0  9990,2 52307  53.2185  53.1564 0001213  96.1479 263.9652 15.08842808119200,6917.872,95.437,540.576,538.898,0.0
52307.0,STARLINK-3755,PAYLOAD,2024-06-16 21:59:03,15.08835372,0.0001492,53.2205,50.7788,103.7718,256.344,-4.5261e-05,-1.008e-05,0.0,0 STARLINK-3755,1 52307U 22041AY  24168.91601319 -.00001008  00000-0 -45261-4 0  9990,2 52307  53.2205  50.7788 0001492 103.7718 256.3440 15.08835372119281,6917.895,95.438,540.792,538.727,0.0
52307.0,STARLINK-3755,PAYLOAD,2024-06-17 21:49:50,15.08841757,0.0001189,53.2192,46.3143,80.795,279.3176,-1.0556e-05,-4.56e-06,0.0,0 STARLINK-3755,1 52307U 22041AY  24169.90960947 -.00000456  00000-0 -10556-4 0  9990,2 52307  53.2192  46.3143 0001189  80.7950 279.3176 15.08841757119439,6917.875,95.437,540.563,538.917,0.0
52307.0,STARLINK-3755,PAYLOAD,2024-06-18 08:57:31,15.0884235,0.0001064,53.2184,44.235,88.1311,271.9803,4.2225e-05,3.84e-06,0.0,0 STARLINK-3755,1 52307U 22041AY  24170.37328701  .00000384  00000-0  42225-4 0  9995,2 52307  53.2184  44.2350 0001064  88.1311 271.9803 15.08842350119505,6917.873,95.437,540.474,539.002,0.0
52307.0,STARLINK-3755,PAYLOAD,2024-06-18 20:05:14,15.08820917,0.0001087,53.2188,42.1534,87.4612,272.6504,0.00030822,4.618e-05,0.0,0 STARLINK-3755,1 52307U 22041AY  24170.83697432  .00004618  00000-0  30822-3 0  9999,2 52307  53.2188  42.1534 0001087  87.4612 272.6504 15.08820917120784,6917.939,95.439,540.556,539.052,0.0
